CCSDS_OMM_VERS = 2.0
CREATION_DATE  = 
ORIGINATOR     = 

OBJECT_NAME    = UNKNOWN
OBJECT_ID      = 
CENTER_NAME    = EARTH
REF_FRAME      = TEME
TIME_SYSTEM    = UTC
MEAN_ELEMENT_THEORY = SGP/SGP4

EPOCH          = 2025-10-29T10:02:45.279168
MEAN_MOTION    = 12.25547650
ECCENTRICITY   = .04719539
INCLINATION    = 82.7598
RA_OF_ASC_NODE = 200.0841
ARG_OF_PERICENTER = 132.3673
MEAN_ANOMALY   = 231.8376

EPHEMERIS_TYPE = 0
CLASSIFICATION_TYPE = U
NORAD_CAT_ID   = 270282
ELEMENT_SET_NO = 999
REV_AT_EPOCH   = 25227
BSTAR          = .39469905E-2
MEAN_MOTION_DOT = .642E-5
MEAN_MOTION_DDOT = 0

CCSDS_OMM_VERS = 2.0
CREATION_DATE  = 
ORIGINATOR     = 

OBJECT_NAME    = UNKNOWN
OBJECT_ID      = 
CENTER_NAME    = EARTH
REF_FRAME      = TEME
TIME_SYSTEM    = UTC
MEAN_ELEMENT_THEORY = SGP/SGP4

EPOCH          = 2025-10-26T14:01:57.129600
MEAN_MOTION    = 12.95291275
ECCENTRICITY   = .01395836
INCLINATION    = 82.7133
RA_OF_ASC_NODE = 51.7573
ARG_OF_PERICENTER = 10.2135
MEAN_ANOMALY   = 350.1759

EPHEMERIS_TYPE = 0
CLASSIFICATION_TYPE = U
NORAD_CAT_ID   = 270284
ELEMENT_SET_NO = 999
REV_AT_EPOCH   = 26116
BSTAR          = .2473073E-2
MEAN_MOTION_DOT = .739E-5
MEAN_MOTION_DDOT = 0

CCSDS_OMM_VERS = 2.0
CREATION_DATE  = 
ORIGINATOR     = 

OBJECT_NAME    = UNKNOWN
OBJECT_ID      = 
CENTER_NAME    = EARTH
REF_FRAME      = TEME
TIME_SYSTEM    = UTC
MEAN_ELEMENT_THEORY = SGP/SGP4

EPOCH          = 2025-10-25T21:10:30.788256
MEAN_MOTION    = 12.95746607
ECCENTRICITY   = .00309811
INCLINATION    = 90.2419
RA_OF_ASC_NODE = 1.0641
ARG_OF_PERICENTER = 27.3353
MEAN_ANOMALY   = 332.9389

EPHEMERIS_TYPE = 0
CLASSIFICATION_TYPE = U
NORAD_CAT_ID   = 270288
ELEMENT_SET_NO = 999
REV_AT_EPOCH   = 26392
BSTAR          = .35691702E-4
MEAN_MOTION_DOT = .18E-6
MEAN_MOTION_DDOT = 0

CCSDS_OMM_VERS = 2.0
CREATION_DATE  = 
ORIGINATOR     = 

OBJECT_NAME    = UNKNOWN
OBJECT_ID      = 
CENTER_NAME    = EARTH
REF_FRAME      = TEME
TIME_SYSTEM    = UTC
MEAN_ELEMENT_THEORY = SGP/SGP4

EPOCH          = 2025-10-26T18:40:18.829344
MEAN_MOTION    = 12.50030615
ECCENTRICITY   = .00230086
INCLINATION    = 73.5981
RA_OF_ASC_NODE = 125.9926
ARG_OF_PERICENTER = 11.4163
MEAN_ANOMALY   = 348.7403

EPHEMERIS_TYPE = 0
CLASSIFICATION_TYPE = U
NORAD_CAT_ID   = 270292
ELEMENT_SET_NO = 999
REV_AT_EPOCH   = 26987
BSTAR          = .19434687E-2
MEAN_MOTION_DOT = .278E-5
MEAN_MOTION_DDOT = 0

CCSDS_OMM_VERS = 2.0
CREATION_DATE  = 
ORIGINATOR     = 

OBJECT_NAME    = UNKNOWN
OBJECT_ID      = 
CENTER_NAME    = EARTH
REF_FRAME      = TEME
TIME_SYSTEM    = UTC
MEAN_ELEMENT_THEORY = SGP/SGP4

EPOCH          = 2025-10-29T16:31:12.830016
MEAN_MOTION    = 14.54361132
ECCENTRICITY   = .00074045
INCLINATION    = 98.6693
RA_OF_ASC_NODE = 101.0112
ARG_OF_PERICENTER = 90.7557
MEAN_ANOMALY   = 269.4487

EPHEMERIS_TYPE = 0
CLASSIFICATION_TYPE = U
NORAD_CAT_ID   = 270293
ELEMENT_SET_NO = 999
REV_AT_EPOCH   = 31335
BSTAR          = .66843442E-3
MEAN_MOTION_DOT = .2792E-4
MEAN_MOTION_DDOT = 0

CCSDS_OMM_VERS = 2.0
CREATION_DATE  = 
ORIGINATOR     = 

OBJECT_NAME    = UNKNOWN
OBJECT_ID      = 
CENTER_NAME    = EARTH
REF_FRAME      = TEME
TIME_SYSTEM    = UTC
MEAN_ELEMENT_THEORY = SGP/SGP4

EPOCH          = 2025-10-27T00:07:04.079712
MEAN_MOTION    = 14.30198655
ECCENTRICITY   = .00749859
INCLINATION    = 99.1604
RA_OF_ASC_NODE = 221.0638
ARG_OF_PERICENTER = 283.6737
MEAN_ANOMALY   = 75.6103

EPHEMERIS_TYPE = 0
CLASSIFICATION_TYPE = U
NORAD_CAT_ID   = 270294
ELEMENT_SET_NO = 999
REV_AT_EPOCH   = 30765
BSTAR          = .67189945E-3
MEAN_MOTION_DOT = .1745E-4
MEAN_MOTION_DDOT = 0

CCSDS_OMM_VERS = 2.0
CREATION_DATE  = 
ORIGINATOR     = 

OBJECT_NAME    = UNKNOWN
OBJECT_ID      = 
CENTER_NAME    = EARTH
REF_FRAME      = TEME
TIME_SYSTEM    = UTC
MEAN_ELEMENT_THEORY = SGP/SGP4

EPOCH          = 2025-10-30T04:44:40.148160
MEAN_MOTION    = 14.69283058
ECCENTRICITY   = .0097543
INCLINATION    = 97.7273
RA_OF_ASC_NODE = 270.5997
ARG_OF_PERICENTER = 212.2255
MEAN_ANOMALY   = 147.2968

EPHEMERIS_TYPE = 0
CLASSIFICATION_TYPE = U
NORAD_CAT_ID   = 270295
ELEMENT_SET_NO = 999
REV_AT_EPOCH   = 8263
BSTAR          = .32736351E-2
MEAN_MOTION_DOT = .20777E-3
MEAN_MOTION_DDOT = 0

CCSDS_OMM_VERS = 2.0
CREATION_DATE  = 
ORIGINATOR     = 

OBJECT_NAME    = UNKNOWN
OBJECT_ID      = 
CENTER_NAME    = EARTH
REF_FRAME      = TEME
TIME_SYSTEM    = UTC
MEAN_ELEMENT_THEORY = SGP/SGP4

EPOCH          = 2025-10-23T10:51:11.316384
MEAN_MOTION    = 12.97963488
ECCENTRICITY   = .00265031
INCLINATION    = 90.2413
RA_OF_ASC_NODE = 1.7662
ARG_OF_PERICENTER = 278.2035
MEAN_ANOMALY   = 81.6080

EPHEMERIS_TYPE = 0
CLASSIFICATION_TYPE = U
NORAD_CAT_ID   = 270296
ELEMENT_SET_NO = 999
REV_AT_EPOCH   = 27882
BSTAR          = -.69391647E-3
MEAN_MOTION_DOT = -.196E-5
MEAN_MOTION_DDOT = 0

CCSDS_OMM_VERS = 2.0
CREATION_DATE  = 
ORIGINATOR     = 

OBJECT_NAME    = UNKNOWN
OBJECT_ID      = 
CENTER_NAME    = EARTH
REF_FRAME      = TEME
TIME_SYSTEM    = UTC
MEAN_ELEMENT_THEORY = SGP/SGP4

EPOCH          = 2025-10-27T23:20:18.805632
MEAN_MOTION    = 12.99391417
ECCENTRICITY   = .00421308
INCLINATION    = 90.2709
RA_OF_ASC_NODE = 17.6895
ARG_OF_PERICENTER = 188.0473
MEAN_ANOMALY   = 171.9978

EPHEMERIS_TYPE = 0
CLASSIFICATION_TYPE = U
NORAD_CAT_ID   = 270297
ELEMENT_SET_NO = 999
REV_AT_EPOCH   = 27956
BSTAR          = .27793684E-2
MEAN_MOTION_DOT = .84E-5
MEAN_MOTION_DDOT = 0

CCSDS_OMM_VERS = 2.0
CREATION_DATE  = 
ORIGINATOR     = 

OBJECT_NAME    = UNKNOWN
OBJECT_ID      = 
CENTER_NAME    = EARTH
REF_FRAME      = TEME
TIME_SYSTEM    = UTC
MEAN_ELEMENT_THEORY = SGP/SGP4

EPOCH          = 2025-10-27T06:13:33.966624
MEAN_MOTION    = 2.07694171
ECCENTRICITY   = .73618035
INCLINATION    = 60.0818
RA_OF_ASC_NODE = 224.0377
ARG_OF_PERICENTER = 72.6207
MEAN_ANOMALY   = 350.3939

EPHEMERIS_TYPE = 0
CLASSIFICATION_TYPE = U
NORAD_CAT_ID   = 270298
ELEMENT_SET_NO = 999
REV_AT_EPOCH   = 1069
BSTAR          = .90470057E-2
MEAN_MOTION_DOT = .1108E-4
MEAN_MOTION_DDOT = 0

CCSDS_OMM_VERS = 2.0
CREATION_DATE  = 
ORIGINATOR     = 

OBJECT_NAME    = UNKNOWN
OBJECT_ID      = 
CENTER_NAME    = EARTH
REF_FRAME      = TEME
TIME_SYSTEM    = UTC
MEAN_ELEMENT_THEORY = SGP/SGP4

EPOCH          = 2025-10-27T15:03:00.086112
MEAN_MOTION    = 12.95854605
ECCENTRICITY   = .00280362
INCLINATION    = 90.2480
RA_OF_ASC_NODE = 6.7399
ARG_OF_PERICENTER = 69.7793
MEAN_ANOMALY   = 290.6338

EPHEMERIS_TYPE = 0
CLASSIFICATION_TYPE = U
NORAD_CAT_ID   = 270299
ELEMENT_SET_NO = 999
REV_AT_EPOCH   = 25772
BSTAR          = .17736815E-2
MEAN_MOTION_DOT = .511E-5
MEAN_MOTION_DDOT = 0

CCSDS_OMM_VERS = 2.0
CREATION_DATE  = 
ORIGINATOR     = 

OBJECT_NAME    = UNKNOWN
OBJECT_ID      = 
CENTER_NAME    = EARTH
REF_FRAME      = TEME
TIME_SYSTEM    = UTC
MEAN_ELEMENT_THEORY = SGP/SGP4

EPOCH          = 2025-10-28T07:23:36.640608
MEAN_MOTION    = 14.50568888
ECCENTRICITY   = .00311785
INCLINATION    = 98.8555
RA_OF_ASC_NODE = 320.4483
ARG_OF_PERICENTER = 12.0041
MEAN_ANOMALY   = 348.1888

EPHEMERIS_TYPE = 0
CLASSIFICATION_TYPE = U
NORAD_CAT_ID   = 270300
ELEMENT_SET_NO = 999
REV_AT_EPOCH   = 7334
BSTAR          = .14826361E-2
MEAN_MOTION_DOT = .5801E-4
MEAN_MOTION_DDOT = 0

CCSDS_OMM_VERS = 2.0
CREATION_DATE  = 
ORIGINATOR     = 

OBJECT_NAME    = UNKNOWN
OBJECT_ID      = 
CENTER_NAME    = EARTH
REF_FRAME      = TEME
TIME_SYSTEM    = UTC
MEAN_ELEMENT_THEORY = SGP/SGP4

EPOCH          = 2025-10-28T12:07:17.638464
MEAN_MOTION    = 14.47284128
ECCENTRICITY   = .00146309
INCLINATION    = 98.9367
RA_OF_ASC_NODE = 316.4990
ARG_OF_PERICENTER = 202.8972
MEAN_ANOMALY   = 157.1568

EPHEMERIS_TYPE = 0
CLASSIFICATION_TYPE = U
NORAD_CAT_ID   = 270302
ELEMENT_SET_NO = 999
REV_AT_EPOCH   = 24015
BSTAR          = .2173086E-2
MEAN_MOTION_DOT = .792E-4
MEAN_MOTION_DDOT = 0

CCSDS_OMM_VERS = 2.0
CREATION_DATE  = 
ORIGINATOR     = 

OBJECT_NAME    = UNKNOWN
OBJECT_ID      = 
CENTER_NAME    = EARTH
REF_FRAME      = TEME
TIME_SYSTEM    = UTC
MEAN_ELEMENT_THEORY = SGP/SGP4

EPOCH          = 2025-10-27T20:47:35.994912
MEAN_MOTION    = 15.06088558
ECCENTRICITY   = .0012465
INCLINATION    = 98.6254
RA_OF_ASC_NODE = 313.9321
ARG_OF_PERICENTER = 288.7986
MEAN_ANOMALY   = 71.1886

EPHEMERIS_TYPE = 0
CLASSIFICATION_TYPE = U
NORAD_CAT_ID   = 270303
ELEMENT_SET_NO = 999
REV_AT_EPOCH   = 24291
BSTAR          = .60883216E-2
MEAN_MOTION_DOT = .90107E-3
MEAN_MOTION_DDOT = 0

CCSDS_OMM_VERS = 2.0
CREATION_DATE  = 
ORIGINATOR     = 

OBJECT_NAME    = UNKNOWN
OBJECT_ID      = 
CENTER_NAME    = EARTH
REF_FRAME      = TEME
TIME_SYSTEM    = UTC
MEAN_ELEMENT_THEORY = SGP/SGP4

EPOCH          = 2025-10-28T07:02:02.092128
MEAN_MOTION    = 14.93072547
ECCENTRICITY   = .00036243
INCLINATION    = 98.6930
RA_OF_ASC_NODE = 310.7798
ARG_OF_PERICENTER = 302.4168
MEAN_ANOMALY   = 57.6698

EPHEMERIS_TYPE = 0
CLASSIFICATION_TYPE = U
NORAD_CAT_ID   = 270304
ELEMENT_SET_NO = 999
REV_AT_EPOCH   = 24144
BSTAR          = .63659462E-2
MEAN_MOTION_DOT = .6685E-3
MEAN_MOTION_DDOT = 0

CCSDS_OMM_VERS = 2.0
CREATION_DATE  = 
ORIGINATOR     = 

OBJECT_NAME    = UNKNOWN
OBJECT_ID      = 
CENTER_NAME    = EARTH
REF_FRAME      = TEME
TIME_SYSTEM    = UTC
MEAN_ELEMENT_THEORY = SGP/SGP4

EPOCH          = 2025-10-30T21:12:00.003168
MEAN_MOTION    = 14.36902049
ECCENTRICITY   = .00093816
INCLINATION    = 98.8119
RA_OF_ASC_NODE = 280.8044
ARG_OF_PERICENTER = 72.0313
MEAN_ANOMALY   = 288.1894

EPHEMERIS_TYPE = 0
CLASSIFICATION_TYPE = U
NORAD_CAT_ID   = 270305
ELEMENT_SET_NO = 999
REV_AT_EPOCH   = 23813
BSTAR          = .10017383E-2
MEAN_MOTION_DOT = .292E-4
MEAN_MOTION_DDOT = 0

